STARLINK-34857          
1 65102U 25167AA  26173.47490075  .00011381  00000+0  34738-3 0  9991
2 65102  53.1586 254.9104 0001249  86.0022 274.1124 15.34406013 49587
STARLINK-34887          
1 65103U 25167AB  26173.43395794  .00022859  00000+0  68555-3 0  9996
2 65103  53.1593 258.9259 0001164  92.7029 267.4107 15.34402858 49532
STARLINK-34481          
1 65104U 25167AC  26173.52110169  .00020637  00000+0  62035-3 0  9997
2 65104  53.1576 254.4855 0000996  93.6381 266.4735 15.34394055 49591
STARLINK-34545          
1 65105U 25167AD  26173.52320278  .00028207  00000+0  84286-3 0  9995
2 65105  53.1573 254.4987 0000506  78.8562 281.2497 15.34398426 49606
HULIANWANG DIGUI-49     
1 65106U 25168A   26173.79990902 -.00000075  00000+0  10632-3 0  9991
2 65106  50.0042 305.8359 0008506 122.2115 237.9583 13.29320376 43434
HULIANWANG DIGUI-50     
1 65107U 25168B   26173.79150130 -.00000078  00000+0  99494-4 0  9990
2 65107  50.0012 305.7110 0009176 108.6539 251.5330 13.29320045 43433
HULIANWANG DIGUI-51     
1 65108U 25168C   26173.78284823 -.00000076  00000+0  10408-3 0  9992
2 65108  50.0049 305.7654 0010501 108.0176 252.1841 13.29323137 43431
HULIANWANG DIGUI-52     
1 65109U 25168D   26173.84989769 -.00000083  00000+0  87553-4 0  9995
2 65109  50.0042 305.4308 0010654 120.5469 239.6455 13.29321049 43443
HULIANWANG DIGUI-53     
1 65110U 25168E   26173.84142080 -.00000085  00000+0  84057-4 0  9992
2 65110  50.0050 305.4150 0009204 111.4393 248.7461 13.29324485 43448
HULIANWANG DIGUI-54     
1 65111U 25168F   26173.81657032 -.00000091  00000+0  70372-4 0  9990
2 65111  50.0001 305.1546 0011001 115.8507 244.3501 13.29324456 43449
HULIANWANG DIGUI-55     
1 65112U 25168G   26173.83311429 -.00000089  00000+0  76271-4 0  9991
2 65112  50.0007 305.2531 0012084 112.1687 248.0469 13.29320858 43448
HULIANWANG DIGUI-56     
1 65113U 25168H   26173.82482626 -.00000091  00000+0  70608-4 0  9990
2 65113  49.9998 305.1875 0012126 131.6657 228.5255 13.29320326 43441
HULIANWANG DIGUI-57     
1 65114U 25168J   26173.80824089 -.00000080  00000+0  94361-4 0  9992
2 65114  50.0026 305.1796 0009808 123.6198 236.5611 13.29324502 43459
QPS-SAR-12 (KUSHINADA-I)
1 65116U 25169A   26173.49560271  .00003482  00000+0  28314-3 0  9992
2 65116  42.0124 346.7513 0008591 253.3513 106.6369 15.00887436 48216
GEESAT-4 01             
1 65119U 25170A   26173.82072444  .00001386  00000+0  19185-3 0  9991
2 65119  49.9871 148.3364 0010053  69.8375 290.3644 14.83994398 47274
GEESAT-4 02             
1 65120U 25170B   26173.80978739  .00001268  00000+0  17778-3 0  9998
2 65120  49.9845 148.1937 0009348 108.7777 251.4176 14.83989201 47292
GEESAT-4 03             
1 65121U 25170C   26173.84263586  .00001389  00000+0  19206-3 0  9992
2 65121  49.9914 147.8687 0019974  81.8766 278.4437 14.83999951 47273
GEESAT-4 04             
1 65122U 25170D   26173.80265407  .00001328  00000+0  19219-3 0  9990
2 65122  49.9705 101.7679 0030198 334.4569  25.4875 14.82152159 47884
GEESAT-4 05             
1 65123U 25170E   26173.83621406  .00001243  00000+0  18230-3 0  9997
2 65123  49.9951 102.4542 0008204 342.3191  17.7460 14.82154624 47880
GEESAT-4 06             
1 65124U 25170F   26173.79879407  .00001307  00000+0  18222-3 0  9991
2 65124  49.9830 148.0750 0018521  60.9160 299.3630 14.84022188 47266
GEESAT-4 07             
1 65125U 25170G   26173.85501264  .00001401  00000+0  19335-3 0  9993
2 65125  49.9910 147.9423 0017783  74.4717 285.8183 14.84041135 47275
GEESAT-4 08             
1 65126U 25170H   26173.78506349  .00001253  00000+0  18351-3 0  9997
2 65126  49.9660 101.4633 0021089   2.8636 357.2418 14.82135756 47888
GEESAT-4 09             
1 65127U 25170J   26173.81763806  .00000993  00000+0  15393-3 0  9998
2 65127  49.9899 177.9498 0021816  51.3355 308.9530 14.81391216 46831
GEESAT-4 10             
1 65128U 25170K   26173.82095037  .00001222  00000+0  17933-3 0  9992
2 65128  49.9784 101.3209 0025234 312.5967  47.2841 14.82181980 47896
GEESAT-4 11             
1 65129U 25170L   26173.83161982  .00001311  00000+0  18278-3 0  9999
2 65129  49.9829 147.5745 0006605 111.6040 248.5603 14.84005069 47274
KUIPER-00081            
1 65132U 25171A   26172.92049358  .00000848  00000+0  14026-3 0  9996
2 65132  51.9003  47.1665 0000843 105.3009 254.8046 14.79929883 48471
KUIPER-00088            
1 65133U 25171B   26173.71196928  .00002910  00000+0  41059-3 0  9999
2 65133  51.8998  61.1674 0000834 101.3277 258.7780 14.79936604 48346
KUIPER-00095            
1 65134U 25171C   26173.32836126  .00004478  00000+0  61573-3 0  9992
2 65134  51.8997  42.9162 0000863 103.4851 256.6208 14.79955893 48565
KUIPER-00096            
1 65135U 25171D   26172.94346301  .00002698  00000+0  38265-3 0  9995
2 65135  51.9005  57.0628 0000774 106.6713 253.4335 14.79945129 48336
KUIPER-00097            
1 65136U 25171E   26173.41350245  .00003248  00000+0  45472-3 0  9991
2 65136  51.9024  57.6369 0000872 105.1119 254.9940 14.79942486 48352
