OBJECT_NAME,OBJECT_ID,EPOCH,MEAN_MOTION,ECCENTRICITY,INCLINATION,RA_OF_ASC_NODE,ARG_OF_PERICENTER,MEAN_ANOMALY,EPHEMERIS_TYPE,CLASSIFICATION_TYPE,NORAD_CAT_ID,ELEMENT_SET_NO,REV_AT_EPOCH,BSTAR,MEAN_MOTION_DOT,MEAN_MOTION_DDOT
STARLINK-34857,2025-167AA,2026-06-22T11:23:51.424800,15.34406013,.00012494,53.1586,254.9104,86.0022,274.1124,0,U,65102,999,4958,.34738142E-3,.11381E-3,0
STARLINK-34887,2025-167AB,2026-06-22T10:24:53.966016,15.34402858,.00011642,53.1593,258.9259,92.7029,267.4107,0,U,65103,999,4953,.68555033E-3,.22859E-3,0
STARLINK-34481,2025-167AC,2026-06-22T12:30:23.186016,15.34394055,.00009969,53.1576,254.4855,93.6381,266.4735,0,U,65104,999,4959,.62035017E-3,.20637E-3,0
STARLINK-34545,2025-167AD,2026-06-22T12:33:24.720192,15.34398426,.00005066,53.1573,254.4987,78.8562,281.2497,0,U,65105,999,4960,.84286298E-3,.28207E-3,0
HULIANWANG DIGUI-49,2025-168A,2026-06-22T19:11:52.139328,13.29320376,.00085063,50.0042,305.8359,122.2115,237.9583,0,U,65106,999,4343,.1063231E-3,-.75E-6,0
HULIANWANG DIGUI-50,2025-168B,2026-06-22T18:59:45.712320,13.29320045,.00091767,50.0012,305.7110,108.6539,251.5330,0,U,65107,999,4343,.99493825E-4,-.78E-6,0
HULIANWANG DIGUI-51,2025-168C,2026-06-22T18:47:18.087072,13.29323137,.00105014,50.0049,305.7654,108.0176,252.1841,0,U,65108,999,4343,.10407534E-3,-.76E-6,0
HULIANWANG DIGUI-52,2025-168D,2026-06-22T20:23:51.160416,13.29321049,.0010654,50.0042,305.4308,120.5469,239.6455,0,U,65109,999,4344,.875528E-4,-.83E-6,0
HULIANWANG DIGUI-53,2025-168E,2026-06-22T20:11:38.757120,13.29324485,.0009204,50.0050,305.4150,111.4393,248.7461,0,U,65110,999,4344,.84057481E-4,-.85E-6,0
HULIANWANG DIGUI-54,2025-168F,2026-06-22T19:35:51.675648,13.29324456,.00110015,50.0001,305.1546,115.8507,244.3501,0,U,65111,999,4344,.70371939E-4,-.91E-6,0
HULIANWANG DIGUI-55,2025-168G,2026-06-22T19:59:41.074656,13.29320858,.00120841,50.0007,305.2531,112.1687,248.0469,0,U,65112,999,4344,.76270571E-4,-.89E-6,0
HULIANWANG DIGUI-56,2025-168H,2026-06-22T19:47:44.988864,13.29320326,.00121264,49.9998,305.1875,131.6657,228.5255,0,U,65113,999,4344,.70607713E-4,-.91E-6,0
HULIANWANG DIGUI-57,2025-168J,2026-06-22T19:23:52.012896,13.29324502,.00098084,50.0026,305.1796,123.6198,236.5611,0,U,65114,999,4345,.94361219E-4,-.8E-6,0
QPS-SAR-12 (KUSHINADA-I),2025-169A,2026-06-22T11:53:40.074144,15.00887436,.00085918,42.0124,346.7513,253.3513,106.6369,0,U,65116,999,4821,.28313786E-3,.3482E-4,0
GEESAT-4 01,2025-170A,2026-06-22T19:41:50.591616,14.83994398,.0010053,49.9871,148.3364,69.8375,290.3644,0,U,65119,999,4727,.1918459E-3,.1386E-4,0
GEESAT-4 02,2025-170B,2026-06-22T19:26:05.630496,14.83989201,.00093487,49.9845,148.1937,108.7777,251.4176,0,U,65120,999,4729,.17778204E-3,.1268E-4,0
GEESAT-4 03,2025-170C,2026-06-22T20:13:23.738304,14.83999951,.0019974,49.9914,147.8687,81.8766,278.4437,0,U,65121,999,4727,.19206108E-3,.1389E-4,0
GEESAT-4 04,2025-170D,2026-06-22T19:15:49.311648,14.82152159,.00301981,49.9705,101.7679,334.4569,25.4875,0,U,65122,999,4788,.1921898E-3,.1328E-4,0
GEESAT-4 05,2025-170E,2026-06-22T20:04:08.894784,14.82154624,.00082048,49.9951,102.4542,342.3191,17.7460,0,U,65123,999,4788,.18230441E-3,.1243E-4,0
GEESAT-4 06,2025-170F,2026-06-22T19:10:15.807648,14.84022188,.00185217,49.9830,148.0750,60.9160,299.3630,0,U,65124,999,4726,.18221978E-3,.1307E-4,0
GEESAT-4 07,2025-170G,2026-06-22T20:31:13.092096,14.84041135,.00177834,49.9910,147.9423,74.4717,285.8183,0,U,65125,999,4727,.19335204E-3,.1401E-4,0
GEESAT-4 08,2025-170H,2026-06-22T18:50:29.485536,14.82135756,.00210899,49.9660,101.4633,2.8636,357.2418,0,U,65126,999,4788,.1835075E-3,.1253E-4,0
GEESAT-4 09,2025-170J,2026-06-22T19:37:23.928384,14.81391216,.00218168,49.9899,177.9498,51.3355,308.9530,0,U,65127,999,4683,.15392561E-3,.993E-5,0
GEESAT-4 10,2025-170K,2026-06-22T19:42:10.111968,14.82181980,.00252346,49.9784,101.3209,312.5967,47.2841,0,U,65128,999,4789,.17932607E-3,.1222E-4,0
GEESAT-4 11,2025-170L,2026-06-22T19:57:31.952448,14.84005069,.00066054,49.9829,147.5745,111.6040,248.5603,0,U,65129,999,4727,.18278242E-3,.1311E-4,0
KUIPER-00081,2025-171A,2026-06-21T22:05:30.645312,14.79929883,.00008435,51.9003,47.1665,105.3009,254.8046,0,U,65132,999,4847,.14025999E-3,.848E-5,0
KUIPER-00088,2025-171B,2026-06-22T17:05:14.145792,14.79936604,.00008349,51.8998,61.1674,101.3277,258.7780,0,U,65133,999,4834,.4105858E-3,.291E-4,0
KUIPER-00095,2025-171C,2026-06-22T07:52:50.412864,14.79955893,.00008633,51.8997,42.9162,103.4851,256.6208,0,U,65134,999,4856,.61572772E-3,.4478E-4,0
KUIPER-00096,2025-171D,2026-06-21T22:38:35.204064,14.79945129,.00007747,51.9005,57.0628,106.6713,253.4335,0,U,65135,999,4833,.38264718E-3,.2698E-4,0
KUIPER-00097,2025-171E,2026-06-22T09:55:26.611680,14.79942486,.00008724,51.9024,57.6369,105.1119,254.9940,0,U,65136,999,4835,.4547223E-3,.3248E-4,0
